     3.00           N: GNSS NAV DATA    E: Galileo          RINEX VERSION / TYPE
PREC2NAV                                20121215 063330 UTC PGM / RUN BY / DATE 
SOURCE: data/tum%W%D.sp3                                    COMMENT             
                                                            END OF HEADER       
E12 2012 11 27 14  0  0  .602732168440E-03  .851271769231E-10  .000000000000E+00
      .800000000000E+01  .352660812284E+02  .363770547619E-08  .753861306742E+00
      .163167731464E-05  .704545010509E-04  .591074517770E-05  .544059534170E+04
      .223200000000E+06  .234613089013E-07  .945726024364E+00 -.684697107265E-07
      .956352379621E+00  .210004461465E+03 -.273583635885E+01 -.570119956331E-08
      .520217174413E-09  .000000000000E+00  .171600000000E+04  .000000000000E+00
      .240000000000E+01  .000000000000E+00  .000000000000E+00  .000000000000E+00
      .226800000000E+06  .000000000000E+00
E11 2012 11 27 16  0  0  .867118153800E-03  .387257169231E-09  .000000000000E+00
      .900000000000E+01  .353414617214E+02  .362665698885E-08  .297318343137E+01
      .156214876319E-05  .105888825116E-03  .607595300040E-05  .544059810260E+04
      .230400000000E+06  .309997407894E-07  .945710503825E+00 -.475848928609E-07
      .956344696659E+00  .207913297520E+03 -.476669544991E+01 -.568348959146E-08
      .569227789794E-09  .000000000000E+00  .171600000000E+04  .000000000000E+00
      .240000000000E+01  .000000000000E+00  .000000000000E+00  .000000000000E+00
      .234000000000E+06  .000000000000E+00
E12 2012 11 27 16  0  0  .603345169640E-03  .851628923077E-10  .000000000000E+00
      .900000000000E+01  .353664149080E+02  .366327260131E-08  .164585722545E+01
      .164583459878E-05  .704817503785E-04  .602332109820E-05  .544059545392E+04
      .230400000000E+06  .326091985700E-07  .945684408234E+00  .172653617244E-07
      .956356435481E+00  .209677365500E+03 -.273519495573E+01 -.570413720428E-08
      .597739313518E-09  .000000000000E+00  .171600000000E+04  .000000000000E+00
      .240000000000E+01  .000000000000E+00  .000000000000E+00  .000000000000E+00
      .234000000000E+06  .000000000000E+00
E11 2012 11 27 18  0  0  .869906440440E-03  .387279682051E-09  .000000000000E+00
      .100000000000E+02  .346241950936E+02  .359190186016E-08 -.241675704621E+01
      .158584812589E-05  .105665278849E-03  .607112443982E-05  .544059858517E+04
      .237600000000E+06  .136362125826E-07  .945669223772E+00  .287240247205E-08
      .956349063963E+00  .206444584347E+03  .151588052283E+01 -.567496194328E-08
      .622101116290E-09  .000000000000E+00  .171600000000E+04  .000000000000E+00
      .240000000000E+01  .000000000000E+00  .000000000000E+00  .000000000000E+00
      .241200000000E+06  .000000000000E+00
E12 2012 11 27 18  0  0  .603958165080E-03  .850943871795E-10  .000000000000E+00
      .100000000000E+02  .335043774304E+02  .361899678381E-08  .253504838133E+01
      .164076501326E-05  .702969500580E-04  .601194906567E-05  .544059608222E+04
      .237600000000E+06  .140322577238E-07  .945643288142E+00 -.219271058008E-08
      .956360937060E+00  .210829131425E+03 -.273174921687E+01 -.568085820415E-08
      .615804944153E-09  .000000000000E+00  .171600000000E+04  .000000000000E+00
      .240000000000E+01  .000000000000E+00  .000000000000E+00  .000000000000E+00
      .241200000000E+06  .000000000000E+00
E11 2012 11 27 20  0  0  .872694617920E-03  .387232551282E-09  .000000000000E+00
      .110000000000E+02  .325252914265E+02  .353777960383E-08 -.152039789824E+01
      .160956737244E-05  .105525997078E-03  .605401069472E-05  .544059944928E+04
      .244800000000E+06  .190537626665E-07  .945628362465E+00 -.542631867020E-08
      .956353612303E+00  .208511595815E+03  .151215601597E+01 -.566426511534E-08
      .625469167487E-09  .000000000000E+00  .171600000000E+04  .000000000000E+00
      .240000000000E+01  .000000000000E+00  .000000000000E+00  .000000000000E+00
      .248400000000E+06  .000000000000E+00
E12 2012 11 27 20  0  0  .604570620080E-03  .850432615385E-10  .000000000000E+00
      .110000000000E+02  .350439218245E+02  .357207932622E-08 -.285649314512E+01
      .165678210585E-05  .698495075154E-04  .596690762900E-05  .544059702559E+04
      .244800000000E+06  .224947952082E-07  .945602477830E+00  .133869104918E-07
      .956365444210E+00  .213562466576E+03 -.273075697124E+01 -.566450075425E-08
      .610944624215E-09  .000000000000E+00  .171600000000E+04  .000000000000E+00
      .240000000000E+01  .000000000000E+00  .000000000000E+00  .000000000000E+00
      .248400000000E+06  .000000000000E+00
E11 2012 11 27 22  0  0  .875482587520E-03  .387219125641E-09  .000000000000E+00
      .120000000000E+02  .363974211634E+02  .348403699029E-08 -.622306266136E+00
      .170536874716E-05  .105875576954E-03  .598618259284E-05  .544060085315E+04
      .252000000000E+06  .146336811759E-07  .945587712620E+00  .207802219768E-07
      .956358177304E+00  .211162812496E+03  .150669804970E+01 -.564574919961E-08
      .615303990719E-09  .000000000000E+00  .171600000000E+04  .000000000000E+00
      .240000000000E+01  .000000000000E+00  .000000000000E+00  .000000000000E+00
      .255600000000E+06  .000000000000E+00
E12 2012 11 27 22  0  0  .605182946680E-03  .850343897436E-10  .000000000000E+00
      .120000000000E+02  .396568203410E+02  .348043505510E-08 -.195465143095E+01
      .168954943249E-05  .691867275281E-04  .601412251879E-05  .544059893563E+04
      .252000000000E+06 -.154847585043E-09  .945561819097E+00  .964751093731E-08
      .956369818395E+00  .209000612703E+03 -.273996386460E+01 -.565591630736E-08
      .597610042068E-09  .000000000000E+00  .171600000000E+04  .000000000000E+00
      .240000000000E+01  .000000000000E+00  .000000000000E+00  .000000000000E+00
      .255600000000E+06  .000000000000E+00
E11 2012 11 28  0  0  0  .878269306400E-03  .386814184615E-09  .000000000000E+00
      .130000000000E+02  .395256676720E+02  .346288723446E-08  .271992531930E+00
      .179177400734E-05  .106693731799E-03  .613411403390E-05  .544060258710E+04
      .259200000000E+06  .187961402523E-06  .945548887210E+00 -.326519025663E-06
      .956362318109E+00  .206145140627E+03  .150503065991E+01 -.569141111837E-08
      .337170748309E-09  .000000000000E+00  .171600000000E+04  .000000000000E+00
      .240000000000E+01  .000000000000E+00  .000000000000E+00  .000000000000E+00
      .262800000000E+06  .000000000000E+00
E12 2012 11 28  0  0  0  .605793980400E-03  .845871461539E-10  .000000000000E+00
      .130000000000E+02  .367607269647E+02  .343946107513E-08 -.105314443494E+01
      .166977735953E-05  .691721949641E-04  .605681201771E-05  .544060021113E+04
      .259200000000E+06  .211089715338E-07  .945521252367E+00  .430047296159E-07
      .956373985626E+00  .205825181965E+03 -.274883752440E+01 -.568220177453E-08
      .577447833765E-09  .000000000000E+00  .171600000000E+04  .000000000000E+00
      .240000000000E+01  .000000000000E+00  .000000000000E+00  .000000000000E+00
      .262800000000E+06  .000000000000E+00
